KORSAT-2                
1 62377U 24247A   26068.41070335  .00005163  00000+0  43498-3 0  9994
2 62377  45.4085 225.0391 0009773  57.7708 302.4117 14.99271316 66592
STARLINK-35896          
1 66824U 25280D   26068.88967735  .00003836  00000+0  32907-3 0  9991
2 66824  70.0024 334.0424 0002705 274.2001  85.8848 14.98331242 16107
